NORAD_CAT_ID,OBJECT_NAME,OBJECT_TYPE,EPOCH,MEAN_MOTION,ECCENTRICITY,INCLINATION,RA_OF_ASC_NODE,ARG_OF_PERICENTER,MEAN_ANOMALY,BSTAR,MEAN_MOTION_DOT,MEAN_MOTION_DDOT,TLE_LINE0,TLE_LINE1,TLE_LINE2,SEMIMAJOR_AXIS,PERIOD,APOGEE,PERIGEE,DECAYED
55656.0,STARLINK-5326,PAYLOAD,2023-09-22 05:10:58,14.98327662,0.0003369,69.9988,292.1566,264.7078,95.3697,0.00012303,1.375e-05,0.0,0 STARLINK-5326,1 55656U 23021AE  23265.21595496  .00001375  00000-0  12303-3 0  9992,2 55656  69.9988 292.1566 0003369 264.7078  95.3697 14.98327662 33760,6950.2,96.107,574.407,569.724,0.0
55656.0,STARLINK-5326,PAYLOAD,2023-09-22 11:35:30,14.98330188,0.0003329,69.999,291.4836,263.769,96.309,0.00014623,1.652e-05,0.0,0 STARLINK-5326,1 55656U 23021AE  23265.48299327  .00001652  00000-0  14623-3 0  9990,2 55656  69.9990 291.4836 0003329 263.7690  96.3090 14.98330188 34104,6950.192,96.107,574.371,569.744,0.0
55656.0,STARLINK-5326,PAYLOAD,2023-09-22 19:36:11,14.98330578,0.0003377,69.9987,290.6404,268.5974,91.4798,0.00010203,1.125e-05,0.0,0 STARLINK-5326,1 55656U 23021AE  23265.81679438  .00001125  00000-0  10203-3 0  9997,2 55656  69.9987 290.6404 0003377 268.5974  91.4798 14.98330578 34152,6950.191,96.107,574.403,569.709,0.0
55656.0,STARLINK-5326,PAYLOAD,2023-09-23 11:37:31,14.98333099,0.0003394,69.9987,288.9574,268.8143,91.2627,8.1709e-05,8.82e-06,0.0,0 STARLINK-5326,1 55656U 23021AE  23266.48439301  .00000882  00000-0  81709-4 0  9993,2 55656  69.9987 288.9574 0003394 268.8143  91.2627 14.98333099 33957,6950.183,96.107,574.407,569.689,0.0
55656.0,STARLINK-5326,PAYLOAD,2023-09-24 11:39:32,14.98334827,0.0003294,69.9988,286.4322,269.5256,90.5525,3.4997e-05,3.25e-06,0.0,0 STARLINK-5326,1 55656U 23021AE  23267.48579151  .00000325  00000-0  34997-4 0  9991,2 55656  69.9988 286.4322 0003294 269.5256  90.5525 14.98334827 34404,6950.178,96.107,574.332,569.754,0.0
55656.0,STARLINK-5326,PAYLOAD,2023-09-25 11:41:33,14.98333603,0.0003149,69.999,283.9077,267.0559,93.024,5.6868e-05,5.86e-06,0.0,0 STARLINK-5326,1 55656U 23021AE  23268.48719000  .00000586  00000-0  56868-4 0  9991,2 55656  69.9990 283.9077 0003149 267.0559  93.0240 14.98333603 34553,6950.182,96.107,574.235,569.858,0.0
55656.0,STARLINK-5326,PAYLOAD,2023-09-25 18:06:05,14.98332263,0.000314,69.999,283.2342,267.8628,92.2172,3.4197e-05,3.15e-06,0.0,0 STARLINK-5326,1 55656U 23021AE  23268.75423099  .00000315  00000-0  34197-4 0  9992,2 55656  69.9990 283.2342 0003140 267.8628  92.2172 14.98332263 34294,6950.186,96.107,574.233,569.869,0.0
55656.0,STARLINK-5326,PAYLOAD,2023-09-26 10:07:26,14.98331645,0.0003169,69.9988,281.5508,267.394,92.6856,2.6716e-05,2.26e-06,0.0,0 STARLINK-5326,1 55656U 23021AE  23269.42183050  .00000226  00000-0  26716-4 0  9996,2 55656  69.9988 281.5508 0003169 267.3940  92.6856 14.98331645 34699,6950.188,96.107,574.255,569.85,0.0
55656.0,STARLINK-5326,PAYLOAD,2023-09-27 02:08:46,14.98329143,0.0003142,69.9986,279.8671,267.6447,92.4352,3.8043e-06,-4.8e-07,0.0,0 STARLINK-5326,1 55656U 23021AE  23270.08943239 -.00000048  00000-0  38043-5 0  9993,2 55656  69.9986 279.8671 0003142 267.6447  92.4352 14.98329143 34491,6950.196,96.107,574.244,569.877,0.0
55656.0,STARLINK-5326,PAYLOAD,2023-09-27 10:09:27,14.98328976,0.0003169,69.9984,279.0254,268.2257,91.8539,-1.7674e-08,-9.3e-07,0.0,0 STARLINK-5326,1 55656U 23021AE  23270.42323277 -.00000093  00000-0 -17674-7 0  9995,2 55656  69.9984 279.0254 0003169 268.2257  91.8539 14.98328976 34845,6950.196,96.107,574.264,569.859,0.0
55656.0,STARLINK-5326,PAYLOAD,2023-09-28 02:10:48,14.98327394,0.0003177,69.9983,277.3419,268.1942,91.8853,2.1003e-06,-6.8e-07,0.0,0 STARLINK-5326,1 55656U 23021AE  23271.09083423 -.00000068  00000-0  21003-5 0  9995,2 55656  69.9983 277.3419 0003177 268.1942  91.8853 14.98327394 34647,6950.201,96.107,574.274,569.858,0.0
55656.0,STARLINK-5326,PAYLOAD,2023-09-28 10:11:28,14.98327134,0.0003162,69.9983,276.5001,267.7269,92.3528,5.3476e-06,-2.9e-07,0.0,0 STARLINK-5326,1 55656U 23021AE  23271.42463484 -.00000029  00000-0  53476-5 0  9997,2 55656  69.9983 276.5001 0003162 267.7269  92.3528 14.98327134 34991,6950.202,96.107,574.264,569.869,0.0
55656.0,STARLINK-5326,PAYLOAD,2023-09-29 10:13:28,14.98332357,0.0003196,69.9986,273.9754,268.3087,91.7706,9.3999e-05,1.029e-05,0.0,0 STARLINK-5326,1 55656U 23021AE  23272.42602984  .00001029  00000-0  93999-4 0  9991,2 55656  69.9986 273.9754 0003196 268.3087  91.7706 14.98332357 34840,6950.186,96.107,574.272,569.829,0.0
55656.0,STARLINK-5326,PAYLOAD,2023-09-30 05:27:05,14.98332683,0.0003181,69.9988,271.9557,268.2375,91.842,9.2304e-05,1.009e-05,0.0,0 STARLINK-5326,1 55656U 23021AE  23273.22714872  .00001009  00000-0  92304-4 0  9997,2 55656  69.9988 271.9557 0003181 268.2375  91.8420 14.98332683 35267,6950.185,96.107,574.26,569.839,0.0
55656.0,STARLINK-5326,PAYLOAD,2023-09-30 10:15:29,14.98334954,0.000314,69.9989,271.4509,267.4945,92.5854,0.00011418,1.27e-05,0.0,0 STARLINK-5326,1 55656U 23021AE  23273.42742628  .00001270  00000-0  11418-3 0  9995,2 55656  69.9989 271.4509 0003140 267.4945  92.5854 14.98334954 34990,6950.178,96.107,574.225,569.86,0.0
55656.0,STARLINK-5326,PAYLOAD,2023-09-30 16:40:02,14.98324178,0.0002923,69.9992,270.7761,269.2829,90.7995,0.00018956,2.169e-05,0.0,0 STARLINK-5326,1 55656U 23021AE  23273.69447170  .00002169  00000-0  18956-3 0  9990,2 55656  69.9992 270.7761 0002923 269.2829  90.7995 14.98324178 35034,6950.211,96.107,574.107,570.044,0.0
55656.0,STARLINK-5326,PAYLOAD,2023-10-01 10:17:30,14.98332125,0.0002968,69.9994,268.9256,267.2366,92.8454,1.3571e-05,6.9e-07,0.0,0 STARLINK-5326,1 55656U 23021AE  23274.42882938  .00000069  00000-0  13571-4 0  9993,2 55656  69.9994 268.9256 0002968 267.2366  92.8454 14.98332125 35446,6950.186,96.107,574.114,569.989,0.0
55656.0,STARLINK-5326,PAYLOAD,2023-10-01 16:42:03,14.98330111,0.0002918,69.9995,268.2521,268.7857,91.2968,-3.0803e-05,-4.61e-06,0.0,0 STARLINK-5326,1 55656U 23021AE  23274.69587167 -.00000461  00000-0 -30803-4 0  9993,2 55656  69.9995 268.2521 0002918 268.7857  91.2968 14.98330111 35188,6950.193,96.107,574.086,570.029,0.0
55656.0,STARLINK-5326,PAYLOAD,2023-10-02 08:43:23,14.98330514,0.000292,69.9994,266.5688,267.8373,92.2452,-1.9489e-05,-3.26e-06,0.0,0 STARLINK-5326,1 55656U 23021AE  23275.36347067 -.00000326  00000-0 -19489-4 0  9998,2 55656  69.9994 266.5688 0002920 267.8373  92.2452 14.98330514 35588,6950.191,96.107,574.086,570.027,0.0
55656.0,STARLINK-5326,PAYLOAD,2023-10-03 05:33:08,14.98331255,0.0002982,69.9992,264.3807,267.4653,92.6164,5.2939e-05,5.39e-06,0.0,0 STARLINK-5326,1 55656U 23021AE  23276.23134820  .00000539  00000-0  52939-4 0  9997,2 55656  69.9992 264.3807 0002982 267.4653  92.6164 14.98331255 35419,6950.189,96.107,574.127,569.981,0.0
55656.0,STARLINK-5326,PAYLOAD,2023-10-03 08:45:24,14.98331988,0.0003018,69.9991,264.0438,268.6478,91.4335,5.681e-05,5.85e-06,0.0,0 STARLINK-5326,1 55656U 23021AE  23276.36486758  .00000585  00000-0  56810-4 0  9994,2 55656  69.9991 264.0438 0003018 268.6478  91.4335 14.98331988 35739,6950.187,96.107,574.149,569.954,0.0
55656.0,STARLINK-5326,PAYLOAD,2023-10-03 16:46:05,14.98329921,0.0003105,69.9989,263.202,271.1882,88.8921,3.8429e-05,3.66e-06,0.0,0 STARLINK-5326,1 55656U 23021AE  23276.69866906  .00000366  00000-0  38429-4 0  9990,2 55656  69.9989 263.2020 0003105 271.1882  88.8921 14.98329921 35789,6950.193,96.107,574.216,569.9,0.0
55656.0,STARLINK-5326,PAYLOAD,2023-10-04 08:47:25,14.9833216,0.0003103,69.9988,261.5183,270.3375,89.7428,7.0914e-05,7.53e-06,0.0,0 STARLINK-5326,1 55656U 23021AE  23277.36626770  .00000753  00000-0  70914-4 0  9993,2 55656  69.9988 261.5183 0003103 270.3375  89.7428 14.98332160 35584,6950.186,96.107,574.208,569.895,0.0
55656.0,STARLINK-5326,PAYLOAD,2023-10-04 16:48:05,14.98331137,0.0003099,69.999,260.6773,271.1678,88.9126,5.1103e-05,5.17e-06,0.0,0 STARLINK-5326,1 55656U 23021AE  23277.70006877  .00000517  00000-0  51103-4 0  9998,2 55656  69.9990 260.6773 0003099 271.1678  88.9126 14.98331137 35939,6950.189,96.107,574.208,569.901,0.0
55656.0,STARLINK-5326,PAYLOAD,2023-10-05 08:49:26,14.98337828,0.0002962,69.9992,258.9937,268.5583,91.5237,8.4804e-05,9.19e-06,0.0,0 STARLINK-5326,1 55656U 23021AE  23278.36766329  .00000919  00000-0  84804-4 0  9996,2 55656  69.9992 258.9937 0002962 268.5583  91.5237 14.98337828 35730,6950.169,96.106,574.092,569.975,0.0
55656.0,STARLINK-5326,PAYLOAD,2023-10-06 02:26:55,14.98322845,0.0002938,69.9993,257.142,268.6873,91.395,0.00012503,1.399e-05,0.0,0 STARLINK-5326,1 55656U 23021AE  23279.10203150  .00001399  00000-0  12503-3 0  9996,2 55656  69.9993 257.1420 0002938 268.6873  91.3950 14.98322845 35840,6950.215,96.107,574.122,570.038,0.0
55656.0,STARLINK-5326,PAYLOAD,2023-10-06 08:51:27,14.9833416,0.0002824,69.9995,256.4687,268.9943,91.0893,6.7847e-05,7.17e-06,0.0,0 STARLINK-5326,1 55656U 23021AE  23279.36906567  .00000717  00000-0  67847-4 0  9991,2 55656  69.9995 256.4687 0002824 268.9943  91.0893 14.98334160 35884,6950.18,96.107,574.008,570.082,0.0
55656.0,STARLINK-5326,PAYLOAD,2023-10-06 15:15:59,14.98333254,0.0002841,69.9999,255.7968,267.9432,92.1402,-9.1385e-05,-1.183e-05,0.0,0 STARLINK-5326,1 55656U 23021AE  23279.63610969 -.00001183  00000-0 -91385-4 0  9993,2 55656  69.9999 255.7968 0002841 267.9432  92.1402 14.98333254 36223,6950.183,96.107,574.022,570.073,0.0
55656.0,STARLINK-5326,PAYLOAD,2023-10-07 00:52:48,14.98321894,0.000278,69.9998,254.7865,267.7806,92.3035,0.00017768,2.027e-05,0.0,0 STARLINK-5326,1 55656U 23021AE  23280.03667084  .00002027  00000-0  17768-3 0  9997,2 55656  69.9998 254.7865 0002780 267.7806  92.3035 14.98321894 35985,6950.218,96.108,574.015,570.151,0.0
55656.0,STARLINK-5326,PAYLOAD,2023-10-08 02:30:57,14.98330643,0.0002666,69.9999,252.0932,264.8763,95.2092,2.7337e-05,2.33e-06,0.0,0 STARLINK-5326,1 55656U 23021AE  23281.10482787  .00000233  00000-0  27337-4 0  9992,2 55656  69.9999 252.0932 0002666 264.8763  95.2092 14.98330643 36141,6950.191,96.107,573.909,570.203,0.0
